     2              NAVIGATION DATA                         RINEX VERSION / TYPE
CCRINEXN V1.6.0 UX  CDDIS               13-SEP-16 18:39     PGM / RUN BY / DATE 
IGS BROADCAST EPHEMERIS FILE                                COMMENT             
    0.7451D-08  0.1490D-07 -0.5960D-07 -0.1192D-06          ION ALPHA           
    0.7987D+05  0.1638D+05 -0.1311D+06 -0.1311D+06          ION BETA            
    0.465661287308D-08 0.142108547152D-13   405504     1914 DELTA-UTC: A0,A1,T,W
    17                                                      LEAP SECONDS        
                                                            END OF HEADER       
30 16  9 13 22  0  0.0 0.150178559125D-03 0.159161572810D-11 0.000000000000D+00
    0.690000000000D+02-0.132500000000D+02 0.457876215239D-08-0.207870540791D+01
   -0.793486833572D-06 0.239680451341D-02 0.106878578663D-04 0.515377601814D+04
    0.252000000000D+06 0.186264514923D-08-0.962380166905D+00-0.409781932831D-07
    0.950802830720D+00 0.167562500000D+03-0.313747254963D+01-0.804319217410D-08
   -0.586095841816D-09 0.100000000000D+01 0.191400000000D+04 0.000000000000D+00
    0.200000000000D+01 0.000000000000D+00 0.372529029846D-08 0.690000000000D+02
    0.244800000000D+06 0.400000000000D+01 0.000000000000D+00 0.000000000000D+00
31 16  9 13 22  0  0.0 0.248138327152D-03-0.204636307899D-11 0.000000000000D+00
    0.320000000000D+02-0.206875000000D+02 0.424696261733D-08-0.228860916418D+01
   -0.110268592834D-05 0.832065928262D-02 0.101048499346D-04 0.515355183220D+04
    0.252000000000D+06-0.171363353729D-06-0.995134254628D+00 0.502914190292D-07
    0.969802817209D+00 0.191625000000D+03-0.382452872229D+00-0.787139930395D-08
   -0.563594904561D-09 0.100000000000D+01 0.191400000000D+04 0.000000000000D+00
    0.200000000000D+01 0.000000000000D+00-0.135041773319D-07 0.320000000000D+02
    0.244800000000D+06 0.400000000000D+01 0.000000000000D+00 0.000000000000D+00
 6 16  9 13 23 59 44.0 0.246006064117D-03 0.511590769747D-11 0.000000000000D+00
    0.100000000000D+01-0.114031250000D+03 0.433446626220D-08 0.748532142111D-01
   -0.618956983089D-05 0.210001948290D-03 0.896304845810D-05 0.515377232933D+04
    0.259184000000D+06 0.000000000000D+00 0.211110069449D+01 0.372529029846D-08
    0.964982089595D+00 0.206312500000D+03-0.155720769330D+01-0.807426489697D-08
   -0.220009164265D-09 0.100000000000D+01 0.191400000000D+04 0.000000000000D+00
    0.200000000000D+01 0.000000000000D+00 0.419095158577D-08 0.100000000000D+01
    0.252000000000D+06 0.400000000000D+01 0.000000000000D+00 0.000000000000D+00
15 16  9 13 23 59 44.0-0.327194109559D-03-0.136424205266D-11 0.000000000000D+00
    0.230000000000D+02 0.261250000000D+02 0.592774691445D-08 0.977223994353D+00
    0.163353979588D-05 0.844076892827D-02 0.447593629360D-05 0.515365647507D+04
    0.259184000000D+06 0.186264514923D-07-0.213923702278D+01 0.912696123123D-07
    0.930074402132D+00 0.274906250000D+03 0.500532326940D+00-0.890465662898D-08
   -0.392873507616D-11 0.100000000000D+01 0.191400000000D+04 0.000000000000D+00
    0.200000000000D+01 0.000000000000D+00-0.107102096081D-07 0.230000000000D+02
    0.252030000000D+06 0.400000000000D+01 0.000000000000D+00 0.000000000000D+00
28 16  9 13 23 59 44.0 0.551819801331D-03 0.272848410532D-11 0.000000000000D+00
    0.240000000000D+02 0.104468750000D+03 0.347335896506D-08 0.257524989331D+01
    0.532530248165D-05 0.198449270101D-01 0.920146703720D-05 0.515363491440D+04
    0.259184000000D+06 0.229105353355D-06 0.966521477328D-01 0.000000000000D+00
    0.989703803239D+00 0.211000000000D+03-0.161139467342D+01-0.730137556017D-08
    0.188936441390D-09 0.100000000000D+01 0.191400000000D+04 0.000000000000D+00
    0.200000000000D+01 0.000000000000D+00-0.107102096081D-07 0.240000000000D+02
    0.252000000000D+06 0.400000000000D+01 0.000000000000D+00 0.000000000000D+00
